BLUEWALKER-3            
1 53807U 22111AL  26201.44082023  .00003279  00000+0  94838-4 0  9990
2 53807  53.2275 237.8077 0004677 289.4443  70.6056 15.38642700215324
SPACEMOBILE-003         
1 61045U 24163A   26201.99683206  .00002028  00000+0  10564-3 0  9996
2 61045  52.9677 153.9638 0004157 213.3860 146.6872 15.20726769102911
SPACEMOBILE-005         
1 61046U 24163B   26202.24316610 -.00006478  00000+0 -27632-3 0  9997
2 61046  52.9742 152.7857 0008491 213.4747 146.5712 15.20685710102940
SPACEMOBILE-001         
1 61047U 24163C   26201.25568385 -.00000135  00000+0  86599-5 0  9998
2 61047  52.9710 157.0335 0006953 209.4162 150.6442 15.20700764102798
SPACEMOBILE-002         
1 61048U 24163D   26202.15995894  .00014941  00000+0  68857-3 0  9992
2 61048  52.9778 152.9178 0004354 211.0455 149.0283 15.20486096102939
SPACEMOBILE-004         
1 61049U 24163E   26202.27362846  .00015015  00000+0  68855-3 0  9992
2 61049  52.9720 152.1723 0005157 251.3714 108.6720 15.20649512102955
SPACEMOBILE-006         
1 67232U 25309A   26202.19960577  .00002319  00000+0  12568-3 0  9994
2 67232  52.9948 175.8266 0009504 235.7559 124.2535 15.18677771 31767
SPACEMOBILE-008         
1 69589U 26139A   26202.09871861  .00000351  00000+0  36736-4 0  9997
2 69589  52.9952 108.6049 0005276  70.5664 289.5897 15.12808741  5119
SPACEMOBILE-009         
1 69590U 26139B   26202.03502191  .00001153  00000+0  82098-4 0  9993
2 69590  52.9943 108.9136 0005554  66.6900 293.4675 15.12707563  5106
SPACEMOBILE-010         
1 69591U 26139C   26202.03876729  .00001092  00000+0  78952-4 0  9991
2 69591  52.9949 108.9399 0005545  59.2902 300.8635 15.12544399  5110
